{
  "norad_id": 65756,
  "name": "STARLINK-35275",
  "history": [
    {
      "epoch": "2026-03-28T16:58:55.319808",
      "apogee_km": 475.7195882212218,
      "perigee_km": 474.7544960886062,
      "latitude_deg": -1.365605363418309,
      "longitude_deg": 103.52813312015496,
      "semi_major_axis_km": 6853.374042154914,
      "eccentricity": 7.041e-05,
      "inclination_deg": 53.1579,
      "raan_deg": 244.6672,
      "arg_perigee_deg": 43.9697,
      "mean_anomaly_deg": 316.1359,
      "mean_motion_rev_day": 15.30192641
    }
  ]
}