{"fetched_at":"2026-03-29T16:36:15Z","count":15609,"tles":[{"name":"STARLINK-35275","line1":"1 65756U 25216Y   26087.70758472  .00034004  00000+0  11552-2 0  9994","line2":"2 65756  53.1579 244.6672 0000704  43.9697 316.1359 15.30192641 29451","category":"Starlink"}]}